{"type":"FeatureCollection","name":"au-states","features":[{"type":"Feature","properties":{"name":"New South Wales","postal":"NSW","iso_3166_2":"AU-NSW","type_en":"State","adm0_a3":"AUS","iso_a2":"AU","source":"Natural Earth 50m admin-1 states/provinces"},"geometry":{"type":"Polygon","coordinates":[[[141.025728,-34.043225],[141.002107,-28.998941],[148.974314,-28.998501],[148.993211,-28.98613],[149.058008,-28.927617],[149.081409,-28.874751],[149.173892,-28.80657],[149.335215,-28.722656],[149.433081,-28.656497],[149.467073,-28.608113],[149.511831,-28.579329],[149.595767,-28.565816],[149.676978,-28.611958],[149.852495,-28.60429],[150.149478,-28.558169],[150.340728,-28.563794],[150.469663,-28.650432],[150.71222,-28.638941],[150.856206,-28.6601],[150.982439,-28.710044],[151.04972,-28.758208],[151.057806,-28.804768],[151.118121,-28.85135],[151.23084,-28.897691],[151.302845,-28.981846],[151.334573,-29.104255],[151.392845,-29.139346],[151.477439,-29.08738],[151.528504,-29.034954],[151.553948,-28.955303],[151.729664,-28.887341],[151.760931,-28.945393],[151.823487,-28.972178],[151.854754,-28.91863],[151.935086,-28.923113],[152.024405,-28.87385],[152.068965,-28.704199],[152.006629,-28.63738],[151.966353,-28.534548],[152.162789,-28.436441],[152.216336,-28.436441],[152.292164,-28.387398],[152.412771,-28.342617],[152.493082,-28.262307],[152.57003,-28.3226],[152.609185,-28.293574],[152.752073,-28.35613],[152.845896,-28.324841],[153.118138,-28.351626],[153.193965,-28.257803],[153.381612,-28.235523],[153.515272,-28.144402],[153.575564,-28.240466],[153.569039,-28.533428],[153.616961,-28.673152],[153.60459,-28.854492],[153.462164,-29.050247],[153.348082,-29.29032],[153.346961,-29.496643],[153.272254,-29.892415],[153.223892,-29.998631],[153.188121,-30.163777],[153.030621,-30.563372],[153.023633,-30.720191],[153.047935,-30.907178],[153.021612,-31.086717],[152.982237,-31.208906],[152.943982,-31.434807],[152.785823,-31.786238],[152.559241,-32.045669],[152.545289,-32.243006],[152.516482,-32.330083],[152.470362,-32.43898],[152.331319,-32.557544],[152.247383,-32.608631],[152.215655,-32.678152],[152.136465,-32.678152],[152.134664,-32.699971],[152.187991,-32.72157],[152.164371,-32.757342],[151.954202,-32.820359],[151.812918,-32.901131],[151.66847,-33.098665],[151.607715,-33.201958],[151.530086,-33.300945],[151.483746,-33.347527],[151.463487,-33.397471],[151.431978,-33.521682],[151.357513,-33.543941],[151.292034,-33.581075],[151.322862,-33.6992],[151.288431,-33.834881],[151.280345,-33.926682],[151.244573,-33.985174],[151.201595,-33.964014],[151.167845,-33.973484],[151.124866,-34.005191],[151.191246,-34.01532],[151.231521,-34.029734],[151.089996,-34.162471],[150.960379,-34.297032],[150.92753,-34.38657],[150.87128,-34.49907],[150.821797,-34.749273],[150.78106,-34.892139],[150.809185,-34.99385],[150.804681,-35.012967],[150.774534,-35.020393],[150.756077,-35.007122],[150.697366,-35.041773],[150.680931,-35.076643],[150.705694,-35.119622],[150.705452,-35.120083],[150.635931,-35.146407],[150.611871,-35.190044],[150.56753,-35.214346],[150.374038,-35.584256],[150.292146,-35.682342],[150.195379,-35.833558],[150.158487,-35.970579],[150.129021,-36.120433],[150.095271,-36.372657],[150.062862,-36.550393],[149.988155,-36.722747],[149.960271,-36.845596],[149.950581,-37.080264],[149.986353,-37.258484],[149.962952,-37.352967],[149.962293,-37.443868],[149.942495,-37.500579],[148.21628,-36.802618],[148.132805,-36.777195],[148.161612,-36.730174],[148.196944,-36.625101],[148.146538,-36.545889],[148.034038,-36.180945],[147.974866,-36.045725],[147.931206,-36.018721],[147.762456,-35.955725],[147.674258,-35.953704],[147.591245,-35.982268],[147.538137,-35.98385],[147.501685,-35.958648],[147.458047,-35.954363],[147.407422,-35.971238],[147.371409,-36.003868],[147.350491,-36.052251],[147.323047,-36.068907],[147.271741,-36.049109],[147.15722,-36.035596],[147.100069,-36.05023],[147.046741,-36.106018],[146.895987,-36.099954],[146.746353,-36.061238],[146.589534,-36.004768],[146.470288,-35.993518],[146.402788,-36.033113],[146.324478,-36.053592],[146.216262,-36.056975],[146.038284,-36.0167],[145.815305,-35.977325],[145.692237,-35.930984],[145.588284,-35.863023],[145.432366,-35.834678],[145.224461,-35.845708],[145.083154,-35.862122],[145.008228,-35.883941],[144.961668,-35.922415],[144.942991,-35.978006],[144.943892,-36.028631],[144.96481,-36.074532],[144.916448,-36.106919],[144.799202,-36.125596],[144.668487,-36.088023],[144.524258,-35.9942],[144.427512,-35.904639],[144.378228,-35.820506],[144.28959,-35.729825],[144.163137,-35.634419],[143.971206,-35.528225],[143.714258,-35.411441],[143.584663,-35.327066],[143.583543,-35.279143],[143.540344,-35.234143],[143.458672,-35.203316],[143.404443,-35.167764],[143.377219,-35.127488],[143.362805,-35.032105],[143.361004,-34.88157],[143.325452,-34.787967],[143.22106,-34.733079],[142.965012,-34.691441],[142.857456,-34.654988],[142.812236,-34.606626],[142.773762,-34.587488],[142.741814,-34.598079],[142.704922,-34.649363],[142.663284,-34.741407],[142.618745,-34.783484],[142.571262,-34.775157],[142.507146,-34.71148],[142.425913,-34.592674],[142.38812,-34.484678],[142.393504,-34.38679],[142.373267,-34.332803],[142.327586,-34.322454],[142.28731,-34.286001],[142.252439,-34.223225],[142.157715,-34.173282],[141.926409,-34.11679],[141.761043,-34.111626],[141.665857,-34.137268],[141.585986,-34.191497],[141.469883,-34.18295],[141.317568,-34.111626],[141.192456,-34.072691],[141.09437,-34.065725],[141.025728,-34.043225]],[[149.403836,-35.329329],[149.256465,-35.271277],[149.194129,-35.21773],[149.189646,-35.177454],[149.10481,-35.146407],[148.828064,-35.311553],[148.770013,-35.494475],[148.774517,-35.637342],[148.792293,-35.708907],[148.850345,-35.748941],[148.890379,-35.744458],[148.899388,-35.820506],[148.948431,-35.887325],[149.051263,-35.914109],[149.10481,-35.829273],[149.086814,-35.610579],[149.12709,-35.583794],[149.14937,-35.507967],[149.140581,-35.440928],[149.185142,-35.382876],[149.278965,-35.347105],[149.368064,-35.356092],[149.403836,-35.329329]]]}},{"type":"Feature","properties":{"name":"Victoria","postal":"VIC","iso_3166_2":"AU-VIC","type_en":"State","adm0_a3":"AUS","iso_a2":"AU","source":"Natural Earth 50m admin-1 states/provinces"},"geometry":{"type":"MultiPolygon","coordinates":[[[[140.966335,-38.071407],[140.968137,-34.005191],[140.996943,-34.01554],[141.025728,-34.043225],[141.09437,-34.065725],[141.192456,-34.072691],[141.317568,-34.111626],[141.469883,-34.18295],[141.585986,-34.191497],[141.665857,-34.137268],[141.761043,-34.111626],[141.926409,-34.11679],[142.157715,-34.173282],[142.252439,-34.223225],[142.28731,-34.286001],[142.327586,-34.322454],[142.373267,-34.332803],[142.393504,-34.38679],[142.38812,-34.484678],[142.425913,-34.592674],[142.507146,-34.71148],[142.571262,-34.775157],[142.618745,-34.783484],[142.663284,-34.741407],[142.704922,-34.649363],[142.741814,-34.598079],[142.773762,-34.587488],[142.812236,-34.606626],[142.857456,-34.654988],[142.965012,-34.691441],[143.22106,-34.733079],[143.325452,-34.787967],[143.361004,-34.88157],[143.362805,-35.032105],[143.377219,-35.127488],[143.404443,-35.167764],[143.458672,-35.203316],[143.540344,-35.234143],[143.583543,-35.279143],[143.584663,-35.327066],[143.714258,-35.411441],[143.971206,-35.528225],[144.163137,-35.634419],[144.28959,-35.729825],[144.378228,-35.820506],[144.427512,-35.904639],[144.524258,-35.9942],[144.668487,-36.088023],[144.799202,-36.125596],[144.916448,-36.106919],[144.96481,-36.074532],[144.943892,-36.028631],[144.942991,-35.978006],[144.961668,-35.922415],[145.008228,-35.883941],[145.083154,-35.862122],[145.224461,-35.845708],[145.432366,-35.834678],[145.588284,-35.863023],[145.692237,-35.930984],[145.815305,-35.977325],[146.038284,-36.0167],[146.216262,-36.056975],[146.324478,-36.053592],[146.402788,-36.033113],[146.470288,-35.993518],[146.589534,-36.004768],[146.746353,-36.061238],[146.895987,-36.099954],[147.046741,-36.106018],[147.100069,-36.05023],[147.15722,-36.035596],[147.271741,-36.049109],[147.323047,-36.068907],[147.350491,-36.052251],[147.371409,-36.003868],[147.407422,-35.971238],[147.458047,-35.954363],[147.501685,-35.958648],[147.538137,-35.98385],[147.591245,-35.982268],[147.674258,-35.953704],[147.762456,-35.955725],[147.931206,-36.018721],[147.974866,-36.045725],[148.034038,-36.180945],[148.146538,-36.545889],[148.196944,-36.625101],[148.161612,-36.730174],[148.132805,-36.777195],[148.21628,-36.802618],[149.942495,-37.500579],[149.932806,-37.528484],[149.809297,-37.54782],[149.708948,-37.616902],[149.565379,-37.730083],[149.480784,-37.771238],[149.298543,-37.802066],[148.943948,-37.788575],[148.262422,-37.830652],[148.130564,-37.856075],[147.876758,-37.934144],[147.631521,-38.055652],[147.395711,-38.219217],[146.856831,-38.663372],[146.435637,-38.711756],[146.356206,-38.711756],[146.29253,-38.699825],[146.217383,-38.727488],[146.216262,-38.782618],[146.285564,-38.84023],[146.336629,-38.894217],[146.42687,-38.819751],[146.466685,-38.84045],[146.481538,-38.977933],[146.48378,-39.064988],[146.456555,-39.112251],[146.400086,-39.14554],[146.340012,-39.123721],[146.332146,-39.0767],[146.254297,-38.964419],[146.15843,-38.865652],[146.070012,-38.834144],[146.018267,-38.866993],[145.935232,-38.901644],[145.865491,-38.775872],[145.790784,-38.666976],[145.691797,-38.655726],[145.60628,-38.656846],[145.535418,-38.609605],[145.397254,-38.535359],[145.424258,-38.477308],[145.462732,-38.416333],[145.542163,-38.393833],[145.518323,-38.31148],[145.475784,-38.243738],[145.366448,-38.225743],[145.292862,-38.237674],[145.248982,-38.291221],[145.191172,-38.383704],[144.959646,-38.500708],[144.847366,-38.436351],[144.717771,-38.340264],[144.780305,-38.347471],[144.911482,-38.344109],[145.020159,-38.258372],[145.066961,-38.204825],[145.119827,-38.091424],[145.049646,-38.010872],[144.984827,-37.952139],[144.891245,-37.899734],[144.53843,-38.077251],[144.465305,-38.102454],[144.395564,-38.136863],[144.517732,-38.166351],[144.589517,-38.157583],[144.665344,-38.209988],[144.543616,-38.284014],[144.447771,-38.303833],[144.328745,-38.348152],[144.101482,-38.462234],[143.811685,-38.698924],[143.686814,-38.766863],[143.538982,-38.820872],[143.338504,-38.757876],[143.226465,-38.743243],[143.082698,-38.645816],[142.840142,-38.580799],[142.612219,-38.451644],[142.45584,-38.386407],[142.344461,-38.372234],[142.187642,-38.399458],[141.924607,-38.283794],[141.725029,-38.271424],[141.593853,-38.387747],[141.491702,-38.379881],[141.424202,-38.363445],[141.213835,-38.171976],[141.010896,-38.077032],[140.966335,-38.071407]]],[[[145.314461,-38.490799],[145.349112,-38.538282],[145.355198,-38.556958],[145.270823,-38.519825],[145.128396,-38.527691],[145.217715,-38.458631],[145.287918,-38.472122],[145.314461,-38.490799]]],[[[145.426521,-38.314183],[145.486594,-38.354898],[145.33584,-38.421058],[145.280271,-38.390669],[145.285896,-38.340945],[145.295344,-38.318907],[145.426521,-38.314183]]]]}},{"type":"Feature","properties":{"name":"Queensland","postal":"QLD","iso_3166_2":"AU-QLD","type_en":"State","adm0_a3":"AUS","iso_a2":"AU","source":"Natural Earth 50m admin-1 states/provinces"},"geometry":{"type":"MultiPolygon","coordinates":[[[[138.00196,-25.999014],[138.001741,-16.556682],[138.002422,-16.555781],[138.071482,-16.616975],[138.244956,-16.718444],[138.505727,-16.789548],[138.625654,-16.777859],[138.820288,-16.860652],[139.009956,-16.899345],[139.110305,-17.014109],[139.144517,-17.101164],[139.154185,-17.167763],[139.248469,-17.328647],[139.44062,-17.380612],[139.68968,-17.540815],[139.894443,-17.611237],[139.945969,-17.653557],[140.035728,-17.7026],[140.209663,-17.704402],[140.511172,-17.624531],[140.648413,-17.543737],[140.830435,-17.414362],[140.91571,-17.192527],[140.966116,-17.014548],[141.219241,-16.64622],[141.291465,-16.463518],[141.355581,-16.221203],[141.411831,-16.069548],[141.393154,-15.904621],[141.451668,-15.605376],[141.581482,-15.195432],[141.625581,-15.056608],[141.603543,-14.852746],[141.522991,-14.470026],[141.558982,-14.337949],[141.594314,-14.152763],[141.535361,-14.018664],[141.480693,-13.926643],[141.472586,-13.797487],[141.534241,-13.553833],[141.588689,-13.425117],[141.645378,-13.259069],[141.613672,-12.943388],[141.734478,-12.833591],[141.78218,-12.778703],[141.875784,-12.778242],[141.920344,-12.803005],[141.929793,-12.739768],[141.892878,-12.681276],[141.878267,-12.613315],[141.852163,-12.578664],[141.794573,-12.566513],[141.746628,-12.529401],[141.677788,-12.491367],[141.688577,-12.350983],[141.805823,-12.080082],[141.87062,-11.975668],[141.912918,-12.019328],[141.96106,-12.054199],[141.967805,-11.97635],[141.951611,-11.896237],[142.040491,-11.631643],[142.139038,-11.273225],[142.168284,-10.946513],[142.326465,-10.884199],[142.406797,-10.802307],[142.456521,-10.707341],[142.544939,-10.707341],[142.605012,-10.748298],[142.565418,-10.819401],[142.552805,-10.874531],[142.723137,-11.010432],[142.779607,-11.115263],[142.803228,-11.214052],[142.836758,-11.306975],[142.852952,-11.432307],[142.850491,-11.632324],[142.872529,-11.821332],[142.933965,-11.880725],[142.988413,-11.918979],[143.066482,-11.924143],[143.178982,-11.954531],[143.152879,-12.075798],[143.104736,-12.169621],[143.099111,-12.225871],[143.110361,-12.3035],[143.190693,-12.361332],[143.254129,-12.397543],[143.28968,-12.498793],[143.401521,-12.63988],[143.397456,-12.736164],[143.457771,-12.855871],[143.511978,-13.094604],[143.529534,-13.30385],[143.586685,-13.443574],[143.54843,-13.741018],[143.589168,-13.862746],[143.643396,-13.963776],[143.707293,-14.164475],[143.756336,-14.348737],[143.822254,-14.401164],[143.961758,-14.462819],[144.105767,-14.394419],[144.209939,-14.301958],[144.321758,-14.279458],[144.472952,-14.231755],[144.586353,-14.354604],[144.648008,-14.492526],[144.915767,-14.674328],[145.064478,-14.791091],[145.179922,-14.857031],[145.287698,-14.943208],[145.276887,-15.029362],[145.251685,-15.097544],[145.276206,-15.203979],[145.293081,-15.327268],[145.271482,-15.476682],[145.349573,-15.70144],[145.375435,-15.881001],[145.458008,-16.056496],[145.451944,-16.236958],[145.436409,-16.304897],[145.42606,-16.406147],[145.490418,-16.532138],[145.54981,-16.625083],[145.638228,-16.726091],[145.754793,-16.879548],[145.837805,-16.910376],[145.912073,-16.912397],[145.901944,-17.070117],[146.049754,-17.381074],[146.125823,-17.63532],[146.074055,-17.977324],[146.022771,-18.175781],[146.032219,-18.272746],[146.223008,-18.509897],[146.333267,-18.553777],[146.311668,-18.666716],[146.296814,-18.841333],[146.38343,-18.976992],[146.481077,-19.078703],[146.587293,-19.139458],[146.691905,-19.18738],[146.828948,-19.235742],[147.002642,-19.256001],[147.092862,-19.332729],[147.138762,-19.393242],[147.278047,-19.414182],[147.341482,-19.402932],[147.418672,-19.378169],[147.470857,-19.419345],[147.509793,-19.474013],[147.58606,-19.622746],[147.742439,-19.770117],[147.853138,-19.794638],[147.915694,-19.869126],[148.004573,-19.889604],[148.08106,-19.898591],[148.189737,-19.955742],[148.366814,-20.0876],[148.526797,-20.108979],[148.600581,-20.14519],[148.759444,-20.289638],[148.821077,-20.366367],[148.884754,-20.480888],[148.805103,-20.491699],[148.729956,-20.467859],[148.683616,-20.580117],[148.78937,-20.735596],[148.912439,-20.845173],[149.060491,-20.961057],[149.204939,-21.125083],[149.241392,-21.250173],[149.280306,-21.299458],[149.32937,-21.476074],[149.454021,-21.578664],[149.460086,-21.765432],[149.523982,-22.023721],[149.595767,-22.257729],[149.645271,-22.328371],[149.703982,-22.440432],[149.771482,-22.426238],[149.822569,-22.389807],[149.920215,-22.501406],[149.974444,-22.550669],[150.005491,-22.521643],[149.941814,-22.308113],[149.981189,-22.184363],[150.020564,-22.168389],[150.076133,-22.164346],[150.142952,-22.265376],[150.234754,-22.372932],[150.405086,-22.468996],[150.541206,-22.558996],[150.579681,-22.555854],[150.564388,-22.486091],[150.568672,-22.38394],[150.622879,-22.367307],[150.672383,-22.418152],[150.763965,-22.576091],[150.782862,-22.903022],[150.783081,-23.176626],[150.843155,-23.458096],[150.931133,-23.531902],[150.988746,-23.601643],[151.087732,-23.696147],[151.153892,-23.784126],[151.236246,-23.825083],[151.50084,-24.012488],[151.575306,-24.033647],[151.69097,-24.038372],[151.831595,-24.122966],[151.902698,-24.201057],[152.055452,-24.494458],[152.129939,-24.597488],[152.282034,-24.699199],[152.353138,-24.732488],[152.456409,-24.802471],[152.493082,-24.90394],[152.50209,-24.964014],[152.563284,-25.072031],[152.654185,-25.201846],[152.789185,-25.27407],[152.913396,-25.432251],[152.920582,-25.688518],[152.984939,-25.816333],[153.028138,-25.87032],[153.125564,-25.922747],[153.164939,-25.964143],[153.084168,-26.303906],[153.162017,-26.98273],[153.116797,-27.194458],[153.198008,-27.404605],[153.385655,-27.768648],[153.428414,-27.897583],[153.454957,-28.048316],[153.515272,-28.144402],[153.381612,-28.235523],[153.193965,-28.257803],[153.118138,-28.351626],[152.845896,-28.324841],[152.752073,-28.35613],[152.609185,-28.293574],[152.57003,-28.3226],[152.493082,-28.262307],[152.412771,-28.342617],[152.292164,-28.387398],[152.216336,-28.436441],[152.162789,-28.436441],[151.966353,-28.534548],[152.006629,-28.63738],[152.068965,-28.704199],[152.024405,-28.87385],[151.935086,-28.923113],[151.854754,-28.91863],[151.823487,-28.972178],[151.760931,-28.945393],[151.729664,-28.887341],[151.553948,-28.955303],[151.528504,-29.034954],[151.477439,-29.08738],[151.392845,-29.139346],[151.334573,-29.104255],[151.302845,-28.981846],[151.23084,-28.897691],[151.118121,-28.85135],[151.057806,-28.804768],[151.04972,-28.758208],[150.982439,-28.710044],[150.856206,-28.6601],[150.71222,-28.638941],[150.469663,-28.650432],[150.340728,-28.563794],[150.149478,-28.558169],[149.852495,-28.60429],[149.676978,-28.611958],[149.595767,-28.565816],[149.511831,-28.579329],[149.467073,-28.608113],[149.433081,-28.656497],[149.335215,-28.722656],[149.173892,-28.80657],[149.081409,-28.874751],[149.058008,-28.927617],[148.993211,-28.98613],[148.974314,-28.998501],[141.002107,-28.998941],[141.002107,-25.999014],[138.00196,-25.999014]]],[[[153.538672,-27.436333],[153.452715,-27.711716],[153.426612,-27.706553],[153.395784,-27.665156],[153.40097,-27.505613],[153.435379,-27.405264],[153.521797,-27.42238],[153.538672,-27.436333]]],[[[153.432237,-27.029971],[153.466888,-27.038079],[153.426392,-27.201423],[153.442586,-27.315945],[153.420987,-27.331018],[153.376668,-27.235393],[153.364957,-27.138867],[153.37981,-27.049329],[153.432237,-27.029971]]],[[[153.282164,-24.738354],[153.297918,-24.91519],[153.359332,-24.977747],[153.350103,-25.063022],[153.141319,-25.512803],[153.083707,-25.682454],[153.077422,-25.750854],[153.051978,-25.778298],[153.006978,-25.728794],[152.976612,-25.551277],[152.999112,-25.448445],[153.051539,-25.354402],[153.060767,-25.302195],[153.038047,-25.193079],[153.189241,-25.070449],[153.227496,-25.005872],[153.241888,-24.922617],[153.186319,-24.832617],[153.14378,-24.814841],[153.180914,-24.764897],[153.223211,-24.739475],[153.256961,-24.728906],[153.282164,-24.738354]]],[[[151.228819,-23.594897],[151.274258,-23.668484],[151.295857,-23.720229],[151.261448,-23.762307],[151.238267,-23.775798],[151.184258,-23.740708],[151.033284,-23.5301],[151.060069,-23.460579],[151.146465,-23.490725],[151.180655,-23.516147],[151.211944,-23.513005],[151.240069,-23.529639],[151.228819,-23.594897]]],[[[150.48856,-22.210708],[150.521409,-22.228242],[150.548853,-22.306992],[150.516685,-22.322527],[150.48856,-22.324768],[150.462456,-22.307673],[150.484737,-22.267859],[150.48856,-22.210708]]],[[[149.912327,-22.048703],[149.927862,-22.149272],[149.928323,-22.193152],[149.893672,-22.223298],[149.86959,-22.150393],[149.875435,-22.074126],[149.912327,-22.048703]]],[[[148.98106,-20.153518],[149.004461,-20.221479],[149.045418,-20.277488],[149.043836,-20.29144],[149.019995,-20.30247],[148.987366,-20.301789],[148.938763,-20.283574],[148.98106,-20.153518]]],[[[148.931556,-20.068923],[148.967788,-20.044402],[148.956319,-20.134621],[148.93562,-20.149914],[148.91356,-20.154199],[148.887017,-20.14363],[148.906353,-20.101992],[148.931556,-20.068923]]],[[[146.278357,-18.23135],[146.298836,-18.326074],[146.342034,-18.4001],[146.326961,-18.448703],[146.298836,-18.484695],[146.23562,-18.450725],[146.19128,-18.362966],[146.116133,-18.292324],[146.098819,-18.251828],[146.186797,-18.25519],[146.230896,-18.241479],[146.249112,-18.225945],[146.278357,-18.23135]]],[[[139.492805,-16.990466],[139.560085,-17.041992],[139.570896,-17.094419],[139.459297,-17.114458],[139.421702,-17.131552],[139.40821,-17.090595],[139.459297,-17.049199],[139.492805,-16.990466]]],[[[139.587991,-16.395117],[139.604404,-16.403225],[139.697788,-16.514824],[139.559646,-16.529458],[139.507878,-16.573095],[139.430491,-16.661074],[139.391555,-16.648703],[139.354202,-16.696626],[139.28312,-16.719345],[139.239021,-16.718664],[139.15959,-16.741626],[139.147659,-16.71394],[139.162732,-16.625984],[139.228672,-16.527656],[139.293008,-16.467341],[139.458835,-16.438557],[139.587991,-16.395117]]],[[[142.131172,-10.640522],[142.197991,-10.591918],[142.274719,-10.70488],[142.191465,-10.762031],[142.137236,-10.731862],[142.125547,-10.668427],[142.131172,-10.640522]]],[[[142.218689,-10.149345],[142.298779,-10.140358],[142.339055,-10.192104],[142.279443,-10.254199],[142.216206,-10.235522],[142.195068,-10.199289],[142.218689,-10.149345]]],[[[142.148948,-10.051699],[142.191904,-10.085229],[142.167603,-10.154069],[142.141961,-10.181293],[142.097642,-10.121682],[142.148948,-10.051699]]]]}},{"type":"Feature","properties":{"name":"South Australia","postal":"SA","iso_3166_2":"AU-SA","type_en":"State","adm0_a3":"AUS","iso_a2":"AU","source":"Natural Earth 50m admin-1 states/provinces"},"geometry":{"type":"MultiPolygon","coordinates":[[[[129.00196,-31.692656],[129.00196,-25.999014],[138.00196,-25.999014],[141.002107,-25.999014],[141.002107,-28.998941],[141.025728,-34.043225],[140.996943,-34.01554],[140.968137,-34.005191],[140.966335,-38.071407],[140.627253,-38.028428],[140.390344,-37.89657],[140.212146,-37.642105],[139.874866,-37.352066],[139.784185,-37.245872],[139.742327,-37.1417],[139.738503,-37.059566],[139.783965,-36.902747],[139.846521,-36.74795],[139.85731,-36.661993],[139.729055,-36.371294],[139.548835,-36.09657],[139.465823,-36.010393],[139.244866,-35.827251],[139.037642,-35.689329],[138.984995,-35.617544],[138.969021,-35.580872],[139.066887,-35.598428],[139.112568,-35.542398],[139.178047,-35.52304],[139.230452,-35.597747],[139.289404,-35.611238],[139.292107,-35.485928],[139.325198,-35.426756],[139.302456,-35.399532],[139.282439,-35.37545],[139.192659,-35.347325],[139.093672,-35.389622],[139.017603,-35.443169],[138.915232,-35.48885],[138.875198,-35.536773],[138.771003,-35.538355],[138.729607,-35.550725],[138.521943,-35.642307],[138.389185,-35.644768],[138.184443,-35.6126],[138.252163,-35.486609],[138.332935,-35.411682],[138.399753,-35.325725],[138.511133,-35.024458],[138.489995,-34.763665],[138.436206,-34.65635],[138.264314,-34.440359],[138.186245,-34.307139],[138.089258,-34.169898],[138.041335,-34.249768],[138.012309,-34.334143],[137.919167,-34.456092],[137.874167,-34.727454],[137.691684,-35.143023],[137.566352,-35.147967],[137.459477,-35.131333],[137.272292,-35.178794],[137.144477,-35.236407],[137.029956,-35.236626],[136.966521,-35.254842],[136.883486,-35.239768],[137.014202,-34.915782],[137.128503,-34.924768],[137.252034,-34.911497],[137.308284,-34.916902],[137.391077,-34.913299],[137.454314,-34.764346],[137.493008,-34.597859],[137.468486,-34.490303],[137.459038,-34.378924],[137.483559,-34.252251],[137.493909,-34.161131],[137.650288,-33.859182],[137.780784,-33.703023],[137.931758,-33.579053],[137.913982,-33.461367],[137.866059,-33.313997],[137.852327,-33.200816],[137.924331,-33.165044],[137.992512,-33.094182],[137.913081,-32.770613],[137.863137,-32.673648],[137.783267,-32.578023],[137.781904,-32.701992],[137.790913,-32.823282],[137.680215,-32.978079],[137.536206,-33.089217],[137.442383,-33.193631],[137.354184,-33.4301],[137.237422,-33.629458],[137.130305,-33.703023],[137.03446,-33.719458],[136.936594,-33.750264],[136.783577,-33.829695],[136.635547,-33.896514],[136.525969,-33.984273],[136.430564,-34.029954],[136.121189,-34.428648],[135.979663,-34.561846],[135.950637,-34.615613],[135.891003,-34.660855],[135.902715,-34.72385],[135.950637,-34.766829],[135.998559,-34.943665],[135.969753,-34.981919],[135.919128,-34.961902],[135.792456,-34.863355],[135.712585,-34.899126],[135.647568,-34.939622],[135.48084,-34.758282],[135.411758,-34.715523],[135.324241,-34.642618],[135.230637,-34.579842],[135.190823,-34.572657],[135.123081,-34.585708],[135.129607,-34.536424],[135.175969,-34.496609],[135.216684,-34.487381],[135.292512,-34.545652],[135.378689,-34.597618],[135.427292,-34.601902],[135.450012,-34.580984],[135.367878,-34.37554],[135.31209,-34.19554],[135.286448,-34.142234],[135.218948,-33.959751],[135.185417,-33.906643],[135.04209,-33.77773],[134.888852,-33.626294],[134.846797,-33.444734],[134.790986,-33.328389],[134.718982,-33.255264],[134.607602,-33.190247],[134.301172,-33.165044],[134.173576,-32.979199],[134.100451,-32.748574],[134.158283,-32.733501],[134.227146,-32.730579],[134.249184,-32.658574],[134.234111,-32.548557],[133.930141,-32.411756],[133.786814,-32.268867],[133.665305,-32.207234],[133.551465,-32.182932],[133.40049,-32.188557],[133.212163,-32.183833],[132.757439,-31.95635],[132.648542,-31.949363],[132.323633,-32.020027],[132.214736,-32.007195],[131.721076,-31.696238],[131.393266,-31.548648],[131.285029,-31.520984],[131.143745,-31.495781],[131.029201,-31.531773],[130.94821,-31.565742],[130.783064,-31.603997],[130.129882,-31.579014],[129.568964,-31.627178],[129.187585,-31.660027],[129.00196,-31.692656]]],[[[137.928835,-35.726001],[138.046521,-35.755247],[138.123469,-35.852454],[138.066538,-35.900596],[138.01187,-35.907583],[137.835452,-35.867747],[137.670986,-35.897893],[137.622163,-35.938169],[137.590215,-36.027049],[137.448469,-36.074751],[137.382309,-36.020984],[137.209516,-35.982488],[137.147861,-36.03898],[137.025913,-36.023907],[136.912732,-36.046626],[136.755012,-36.033113],[136.589184,-35.935247],[136.540581,-35.890247],[136.579055,-35.808575],[136.638689,-35.748721],[137.091831,-35.663907],[137.334167,-35.592583],[137.530361,-35.605174],[137.585029,-35.620247],[137.635434,-35.65648],[137.598081,-35.722178],[137.596521,-35.738592],[137.835913,-35.761993],[137.928835,-35.726001]]]]}},{"type":"Feature","properties":{"name":"Western Australia","postal":"WA","iso_3166_2":"AU-WA","type_en":"State","adm0_a3":"AUS","iso_a2":"AU","source":"Natural Earth 50m admin-1 states/provinces"},"geometry":{"type":"MultiPolygon","coordinates":[[[[113.131813,-25.951992],[113.148227,-25.973833],[113.183119,-26.053022],[113.156334,-26.094419],[112.964184,-25.783022],[112.908153,-25.569734],[112.947089,-25.531479],[112.982421,-25.520229],[113.096261,-25.814971],[113.131593,-25.88269],[113.131813,-25.951992]]],[[[115.354369,-20.746406],[115.43446,-20.667876],[115.457641,-20.716238],[115.446171,-20.787803],[115.388119,-20.866091],[115.318136,-20.850578],[115.308688,-20.811203],[115.354369,-20.746406]]],[[[124.550783,-15.270358],[124.564516,-15.310854],[124.605012,-15.356513],[124.597365,-15.401975],[124.559572,-15.4301],[124.52424,-15.421552],[124.523779,-15.382397],[124.482844,-15.340319],[124.503981,-15.292397],[124.519296,-15.267414],[124.550783,-15.270358]]],[[[125.19812,-14.474751],[125.193615,-14.5526],[125.198779,-14.579604],[125.134663,-14.641699],[125.091245,-14.591755],[125.117326,-14.492065],[125.159865,-14.456074],[125.19812,-14.474751]]],[[[129.00196,-25.999014],[129.00196,-31.692656],[128.946171,-31.702544],[128.546115,-31.88773],[128.067771,-32.066609],[127.678063,-32.151204],[127.319865,-32.264143],[127.084055,-32.296773],[126.779184,-32.310945],[126.136594,-32.256958],[125.917219,-32.296992],[125.567568,-32.505799],[125.463615,-32.556643],[125.26652,-32.614475],[124.758688,-32.882674],[124.52468,-32.940044],[124.373266,-32.958501],[124.243671,-33.015191],[124.125986,-33.129273],[123.967145,-33.446294],[123.868356,-33.596367],[123.650344,-33.836221],[123.506796,-33.916333],[123.36549,-33.905303],[123.207529,-33.988316],[123.067585,-33.900579],[122.955766,-33.883704],[122.777568,-33.890889],[122.150929,-33.9917],[122.061171,-33.874475],[121.946408,-33.8567],[121.729736,-33.862544],[121.405068,-33.826773],[120.814662,-33.871333],[120.53049,-33.919695],[120.418429,-33.963113],[120.209404,-33.93545],[119.854128,-33.974825],[119.729037,-34.041424],[119.635214,-34.101277],[119.45049,-34.368355],[119.24777,-34.456553],[119.081261,-34.459475],[118.895417,-34.479954],[118.520102,-34.737122],[118.13558,-34.986643],[118.006447,-35.013208],[117.863119,-35.055044],[117.675451,-35.074842],[117.581869,-35.097803],[117.14402,-35.033665],[116.865451,-35.02648],[116.517162,-34.988006],[116.217016,-34.865816],[115.98661,-34.794954],[115.726278,-34.526075],[115.564955,-34.425725],[115.277641,-34.303997],[115.194826,-34.308501],[115.128007,-34.34179],[115.008761,-34.255855],[115.005619,-34.145157],[114.973429,-34.051092],[114.975692,-33.804273],[114.993908,-33.515376],[115.098981,-33.580174],[115.181554,-33.643389],[115.358852,-33.640027],[115.515231,-33.53135],[115.604572,-33.372268],[115.68308,-33.192949],[115.670929,-33.002139],[115.618502,-32.666902],[115.654296,-32.596699],[115.707843,-32.567893],[115.725377,-32.401165],[115.73799,-31.887949],[115.698395,-31.694458],[115.454477,-31.302488],[115.294296,-30.961846],[115.17683,-30.807949],[115.077843,-30.560449],[114.994589,-30.216204],[114.968947,-30.042268],[114.942162,-29.721643],[114.971408,-29.539841],[114.959037,-29.433648],[114.856886,-29.142949],[114.628502,-28.871829],[114.590709,-28.771699],[114.59183,-28.666165],[114.537382,-28.542876],[114.353559,-28.294915],[114.165231,-28.080725],[114.133502,-27.976553],[114.098412,-27.544329],[114.028209,-27.347234],[113.709386,-26.84773],[113.332951,-26.417307],[113.231041,-26.24135],[113.184679,-26.182178],[113.210783,-26.17429],[113.25308,-26.197251],[113.300102,-26.24023],[113.323283,-26.243833],[113.345343,-26.208281],[113.34286,-26.126147],[113.356132,-26.080466],[113.388981,-26.105449],[113.427455,-26.198152],[113.546481,-26.436643],[113.581593,-26.558152],[113.733688,-26.595044],[113.78049,-26.563315],[113.83652,-26.50054],[113.852714,-26.332251],[113.775766,-26.255984],[113.706464,-26.223574],[113.58902,-26.098704],[113.513412,-25.898225],[113.395287,-25.713281],[113.397309,-25.647122],[113.451317,-25.599199],[113.539516,-25.625303],[113.621188,-25.731716],[113.71299,-25.830725],[113.697916,-26.004199],[113.683502,-26.051682],[113.69161,-26.091716],[113.723778,-26.129751],[113.765856,-26.159678],[113.811757,-26.115798],[113.853834,-26.014548],[113.879938,-26.0276],[113.942494,-26.258665],[113.991977,-26.32144],[114.090304,-26.393665],[114.176041,-26.337415],[114.215636,-26.289492],[114.203266,-26.126367],[114.228468,-25.968647],[114.214296,-25.851643],[113.992658,-25.544751],[113.792421,-25.165613],[113.670912,-24.977065],[113.569201,-24.692893],[113.503502,-24.594565],[113.417787,-24.435725],[113.413063,-24.253923],[113.421391,-24.132414],[113.489791,-23.869622],[113.553007,-23.73282],[113.757089,-23.418281],[113.766977,-23.2826],[113.764735,-23.180449],[113.794882,-23.02363],[113.795102,-22.914492],[113.767877,-22.812803],[113.682843,-22.637746],[113.795102,-22.332195],[113.958468,-21.939126],[114.022804,-21.881514],[114.123834,-21.828647],[114.142511,-21.90988],[114.092787,-22.18144],[114.163891,-22.323428],[114.14161,-22.483169],[114.205287,-22.455945],[114.303615,-22.425359],[114.377641,-22.341423],[114.417016,-22.261091],[114.60286,-21.942268],[114.709296,-21.823484],[114.859127,-21.735945],[115.161757,-21.630652],[115.456059,-21.491609],[115.596002,-21.358169],[115.77152,-21.242307],[115.893468,-21.116755],[116.010912,-21.030359],[116.605822,-20.713315],[116.70683,-20.653923],[116.836447,-20.647178],[116.995287,-20.657527],[117.139054,-20.640871],[117.292731,-20.713096],[117.406132,-20.721203],[117.683778,-20.642673],[117.832292,-20.57247],[118.087218,-20.419013],[118.199257,-20.375156],[118.458227,-20.326772],[118.751408,-20.261975],[119.104443,-19.995359],[119.358688,-20.012234],[119.585929,-20.038315],[119.767731,-19.958445],[120.196352,-19.909402],[120.433744,-19.841902],[120.878339,-19.665044],[120.998046,-19.604289],[121.179826,-19.477859],[121.337787,-19.319897],[121.493486,-19.106367],[121.589572,-18.915117],[121.630727,-18.81657],[121.722089,-18.65997],[121.784865,-18.536001],[121.833688,-18.477048],[122.006262,-18.393574],[122.262089,-18.159126],[122.345344,-18.111862],[122.360856,-18.036958],[122.305727,-17.99488],[122.237326,-17.968557],[122.191205,-17.720376],[122.147568,-17.548923],[122.143063,-17.428315],[122.160158,-17.313574],[122.260969,-17.135815],[122.332731,-17.059328],[122.43196,-16.970449],[122.522641,-16.942763],[122.598007,-16.864914],[122.720417,-16.787746],[122.772162,-16.710117],[122.84799,-16.552397],[122.91683,-16.43269],[122.970619,-16.436755],[123.07433,-16.715302],[123.142072,-16.863112],[123.265822,-17.036828],[123.383266,-17.292876],[123.478891,-17.40988],[123.525231,-17.485708],[123.563046,-17.520798],[123.571594,-17.472194],[123.561904,-17.415505],[123.607805,-17.21997],[123.586447,-17.082729],[123.593632,-17.030302],[123.617714,-17.008242],[123.664055,-17.023315],[123.753835,-17.099824],[123.799055,-17.127048],[123.831003,-17.120742],[123.829443,-16.996772],[123.874443,-16.918703],[123.856447,-16.864694],[123.778137,-16.867859],[123.745068,-16.801018],[123.68049,-16.72363],[123.607145,-16.668039],[123.518046,-16.540708],[123.490361,-16.490742],[123.525012,-16.467583],[123.581262,-16.470944],[123.626042,-16.416276],[123.64652,-16.343151],[123.607145,-16.224126],[123.647421,-16.179807],[123.728852,-16.192397],[123.859128,-16.382307],[123.915158,-16.36363],[123.961279,-16.286901],[124.044313,-16.264841],[124.129809,-16.278794],[124.186059,-16.333703],[124.300361,-16.388371],[124.452697,-16.382065],[124.530085,-16.395117],[124.692309,-16.38613],[124.77196,-16.402544],[124.757106,-16.373298],[124.669128,-16.338647],[124.570361,-16.331901],[124.454477,-16.335263],[124.404995,-16.298833],[124.388339,-16.202966],[124.416464,-16.133444],[124.43446,-16.103737],[124.510068,-16.11635],[124.576887,-16.113647],[124.584995,-16.020044],[124.608615,-15.93747],[124.64843,-15.87019],[124.64843,-15.805393],[124.606594,-15.822729],[124.504201,-15.972583],[124.455158,-15.850612],[124.381594,-15.758151],[124.396667,-15.625854],[124.439645,-15.493557],[124.505563,-15.475319],[124.561594,-15.496237],[124.644387,-15.41885],[124.690969,-15.359677],[124.680158,-15.311074],[124.692529,-15.27372],[124.75058,-15.28519],[124.971977,-15.404216],[125.016318,-15.466552],[125.062878,-15.442251],[125.077951,-15.374531],[125.073007,-15.306789],[125.023964,-15.316919],[124.909201,-15.310173],[124.882658,-15.271919],[124.892788,-15.240432],[124.83902,-15.160781],[124.914167,-15.109914],[124.978745,-15.106552],[125.023283,-15.071901],[125.023964,-15.024419],[125.038137,-15.004182],[125.073007,-15.032307],[125.188671,-15.045358],[125.302292,-15.106772],[125.35562,-15.119824],[125.375637,-15.086755],[125.383745,-15.015651],[125.243339,-14.944548],[125.239516,-14.874565],[125.180344,-14.794013],[125.178762,-14.714824],[125.26652,-14.648444],[125.284516,-14.584108],[125.335361,-14.558005],[125.43593,-14.556862],[125.503671,-14.502194],[125.579719,-14.483298],[125.598395,-14.361569],[125.597033,-14.278095],[125.627641,-14.256716],[125.704589,-14.291367],[125.681188,-14.387893],[125.680969,-14.480156],[125.661611,-14.529419],[125.690637,-14.525376],[125.708413,-14.504897],[125.738559,-14.444362],[125.819572,-14.469126],[125.839589,-14.533923],[125.850158,-14.59738],[125.890654,-14.618078],[125.946003,-14.520432],[126.02071,-14.494548],[126.016667,-14.371237],[126.044792,-14.283039],[126.053559,-14.216682],[126.100822,-14.184272],[126.111391,-14.114069],[126.073356,-14.065466],[126.05402,-13.977268],[126.119038,-13.95769],[126.184296,-14.002031],[126.228154,-14.113388],[126.258542,-14.163574],[126.298818,-14.13613],[126.32312,-14.062104],[126.40321,-14.018906],[126.482421,-14.078979],[126.569719,-14.160871],[126.679055,-14.089328],[126.780766,-13.955229],[126.764572,-13.873095],[126.775581,-13.788501],[126.903154,-13.744182],[127.005986,-13.776789],[127.099128,-13.86747],[127.293081,-13.934751],[127.457568,-14.031496],[127.531132,-14.094733],[127.672878,-14.195083],[127.763559,-14.299475],[127.887529,-14.4851],[128.18049,-14.711682],[128.199387,-14.751716],[128.159792,-14.827324],[128.12446,-14.924069],[128.080361,-15.087876],[128.069331,-15.329289],[128.111628,-15.311975],[128.155507,-15.225578],[128.20187,-15.243354],[128.254736,-15.298483],[128.259021,-15.245595],[128.227292,-15.213647],[128.173064,-15.102268],[128.175085,-15.043095],[128.218283,-14.995612],[128.285102,-14.938923],[128.358227,-14.901569],[128.403227,-14.869182],[128.409753,-14.828906],[128.477495,-14.787949],[128.575822,-14.774458],[128.635434,-14.780983],[129.00196,-14.870742],[129.00196,-25.999014]]]]}},{"type":"Feature","properties":{"name":"Tasmania","postal":"TAS","iso_3166_2":"AU-TAS","type_en":"State","adm0_a3":"AUS","iso_a2":"AU","source":"Natural Earth 50m admin-1 states/provinces"},"geometry":{"type":"MultiPolygon","coordinates":[[[[147.312456,-43.280377],[147.342383,-43.346295],[147.356116,-43.39692],[147.308853,-43.500872],[147.231465,-43.483096],[147.153836,-43.500191],[147.105012,-43.431131],[147.104793,-43.412894],[147.163064,-43.43023],[147.184663,-43.40773],[147.198396,-43.379144],[147.219754,-43.371497],[147.233948,-43.33054],[147.283892,-43.278795],[147.312456,-43.280377]]],[[[147.352512,-43.08036],[147.397293,-43.118372],[147.434646,-43.240782],[147.37187,-43.240782],[147.348909,-43.232454],[147.337659,-43.183389],[147.296043,-43.16179],[147.319202,-43.145377],[147.32731,-43.114549],[147.352512,-43.08036]]],[[[148.072513,-42.593226],[148.142715,-42.615945],[148.169478,-42.651717],[148.100638,-42.680523],[148.104241,-42.71045],[148.048211,-42.719217],[148.029754,-42.714954],[148.030896,-42.663428],[148.022788,-42.640467],[148.072513,-42.593226]]],[[[148.340711,-42.111058],[148.331043,-42.1592],[148.342513,-42.21545],[148.331263,-42.26157],[148.290305,-42.255045],[148.277034,-42.219493],[148.284461,-42.173372],[148.277034,-42.13648],[148.255655,-42.10273],[148.183211,-42.064695],[148.20437,-42.041976],[148.241482,-42.021959],[148.213577,-41.969971],[148.167237,-42.012269],[148.141133,-42.069881],[148.156206,-42.088316],[148.127642,-42.103631],[148.066668,-42.17023],[148.022788,-42.259549],[148.004793,-42.345045],[148.009297,-42.435945],[147.973504,-42.505928],[147.924461,-42.572527],[147.91209,-42.658485],[147.915013,-42.816424],[147.957771,-42.960433],[147.98093,-43.157066],[147.945379,-43.181829],[147.838504,-43.195101],[147.785857,-43.220084],[147.699021,-43.122657],[147.647935,-43.020506],[147.68731,-42.979769],[147.773948,-43.003389],[147.800491,-42.98023],[147.807456,-42.954127],[147.80003,-42.928023],[147.693396,-42.871993],[147.573909,-42.84567],[147.535896,-42.878079],[147.548948,-42.974605],[147.536797,-42.996424],[147.452422,-43.033316],[147.408081,-42.893834],[147.298064,-42.791002],[147.301887,-42.840506],[147.347569,-42.926441],[147.342603,-42.964476],[147.325069,-43.013519],[147.280728,-43.031756],[147.25981,-43.071131],[147.25981,-43.12648],[147.244956,-43.216019],[147.172732,-43.255855],[146.997017,-43.156407],[146.984866,-43.189915],[146.987569,-43.218721],[147.077327,-43.275872],[147.03593,-43.31907],[147.004663,-43.369695],[146.95472,-43.502454],[146.873948,-43.612471],[146.834331,-43.619459],[146.699112,-43.601903],[146.548577,-43.50898],[146.413137,-43.519549],[146.186797,-43.512803],[146.043228,-43.547235],[146.013081,-43.444842],[145.981814,-43.408389],[145.994405,-43.376002],[146.108706,-43.354403],[146.226392,-43.355303],[146.207935,-43.316148],[146.176448,-43.301756],[146.125142,-43.311204],[145.975288,-43.277235],[145.873137,-43.292308],[145.802715,-43.244144],[145.681448,-43.076075],[145.609883,-42.998226],[145.567366,-42.968079],[145.517642,-42.951424],[145.487715,-42.926683],[145.26812,-42.544402],[145.237073,-42.455523],[145.198819,-42.230743],[145.372952,-42.338519],[145.434827,-42.40648],[145.468357,-42.492877],[145.52731,-42.388243],[145.516521,-42.354493],[145.360362,-42.227601],[145.339663,-42.190709],[145.331116,-42.147049],[145.294444,-42.190928],[145.23481,-42.196993],[145.258892,-42.107235],[145.238194,-42.019695],[145.055491,-41.826644],[144.915547,-41.643941],[144.777844,-41.418941],[144.766133,-41.390157],[144.764331,-41.341553],[144.697732,-41.190799],[144.662422,-41.07898],[144.645987,-40.980872],[144.709663,-40.782877],[144.718672,-40.672178],[144.81856,-40.721683],[145.042879,-40.7867],[145.158762,-40.790523],[145.224241,-40.765101],[145.282952,-40.769825],[145.349331,-40.826295],[145.429444,-40.858243],[145.485232,-40.852398],[145.533616,-40.863868],[145.576353,-40.904144],[145.68593,-40.939014],[145.733853,-40.961976],[145.775491,-40.997066],[145.821392,-41.024532],[146.111189,-41.118113],[146.317512,-41.163575],[146.574461,-41.142415],[146.650508,-41.116334],[146.723413,-41.078079],[146.785969,-41.113631],[146.848064,-41.168079],[146.836133,-41.109346],[146.856612,-41.058282],[146.919387,-41.017764],[146.98981,-40.992342],[147.105694,-40.994144],[147.218853,-40.983355],[147.269038,-40.959734],[147.320564,-40.956351],[147.387603,-40.985596],[147.454883,-41.00157],[147.500784,-40.964217],[147.579314,-40.875579],[147.621612,-40.844752],[147.817586,-40.871756],[147.872935,-40.872657],[147.96878,-40.779493],[148.032918,-40.781075],[148.215159,-40.854881],[148.292788,-40.947122],[148.285362,-41.115433],[148.291668,-41.174605],[148.30628,-41.233096],[148.312146,-41.349639],[148.289866,-41.465084],[148.286944,-41.555084],[148.296612,-41.646204],[148.287603,-41.815613],[148.315728,-41.927674],[148.301555,-42.004183],[148.301555,-42.039954],[148.32812,-42.073704],[148.340711,-42.111058]]],[[[148.218323,-40.504988],[148.236978,-40.515118],[148.187715,-40.592527],[148.126961,-40.543924],[148.117293,-40.521424],[148.19312,-40.503209],[148.218323,-40.504988]]],[[[144.783469,-40.434808],[144.790896,-40.440433],[144.78437,-40.50679],[144.748137,-40.589363],[144.710103,-40.485191],[144.75106,-40.470118],[144.783469,-40.434808]]],[[[148.420823,-40.367066],[148.474129,-40.432325],[148.403948,-40.486553],[148.352642,-40.497342],[148.319331,-40.434566],[148.214038,-40.457527],[148.102439,-40.451683],[148.020086,-40.4042],[148.010418,-40.380579],[148.05878,-40.356959],[148.198064,-40.357859],[148.326319,-40.306993],[148.420823,-40.367066]]],[[[148.250711,-40.099549],[148.323155,-40.144549],[148.313487,-40.173575],[148.299314,-40.172454],[148.210435,-40.233648],[148.105581,-40.261993],[148.073633,-40.240855],[148.04687,-40.21273],[148.02481,-40.171993],[147.890491,-40.014493],[147.906004,-39.971294],[147.876319,-39.905377],[147.812422,-39.91054],[147.76718,-39.870264],[147.839185,-39.83157],[147.933008,-39.726058],[148.000288,-39.757544],[148.178047,-39.938445],[148.270069,-39.96679],[148.297293,-39.985709],[148.289866,-40.065359],[148.250711,-40.099549]]],[[[144.12084,-39.78523],[144.105986,-39.874109],[144.141077,-39.953738],[144.111831,-40.022139],[144.035103,-40.078169],[143.928008,-40.116204],[143.898762,-40.120247],[143.875823,-40.063997],[143.887512,-39.983665],[143.838689,-39.904014],[143.865232,-39.824144],[143.86187,-39.737967],[143.879404,-39.699954],[143.939258,-39.658096],[143.948948,-39.583631],[144.000694,-39.580247],[144.091353,-39.638079],[144.12084,-39.78523]]]]}},{"type":"Feature","properties":{"name":"Northern Territory","postal":"NT","iso_3166_2":"AU-NT","type_en":"Territory","adm0_a3":"AUS","iso_a2":"AU","source":"Natural Earth 50m admin-1 states/provinces"},"geometry":{"type":"MultiPolygon","coordinates":[[[[129.00196,-25.999014],[129.00196,-14.870742],[129.05821,-14.884475],[129.165085,-14.987526],[129.175214,-15.1151],[129.21571,-15.160319],[129.23799,-15.080229],[129.233486,-14.906074],[129.267697,-14.871423],[129.381318,-14.898427],[129.458947,-14.933298],[129.567163,-15.04738],[129.587641,-15.103388],[129.634663,-15.139841],[129.650197,-15.086755],[129.628137,-15.011828],[129.612602,-14.925871],[129.637146,-14.850944],[129.763357,-14.8451],[129.848632,-14.828906],[129.808357,-14.799638],[129.753469,-14.789531],[129.663007,-14.720888],[129.604736,-14.647104],[129.698559,-14.575319],[129.697878,-14.557324],[129.607878,-14.559565],[129.483908,-14.489824],[129.378615,-14.392397],[129.459167,-14.213518],[129.619589,-14.038483],[129.709809,-13.97997],[129.718357,-13.920798],[129.761796,-13.811901],[129.78924,-13.71988],[129.797107,-13.648315],[129.838964,-13.572949],[129.937951,-13.501625],[130.072732,-13.476203],[130.135969,-13.448298],[130.199404,-13.3826],[130.259719,-13.302268],[130.135068,-13.145449],[130.145417,-13.059272],[130.168137,-12.957341],[130.31799,-12.882875],[130.399882,-12.687802],[130.454111,-12.658557],[130.571797,-12.664401],[130.617456,-12.646845],[130.609589,-12.491367],[130.622641,-12.431074],[130.672365,-12.406992],[130.736042,-12.42769],[130.776538,-12.49519],[130.867439,-12.557746],[130.898266,-12.523557],[130.882951,-12.455156],[130.873745,-12.367177],[130.956538,-12.348281],[131.023357,-12.342875],[131.030102,-12.271091],[131.019533,-12.21394],[131.045637,-12.189638],[131.220012,-12.177949],[131.265451,-12.118996],[131.291555,-12.067932],[131.313835,-12.095815],[131.34218,-12.210117],[131.438266,-12.276957],[131.726262,-12.278078],[131.888047,-12.231957],[131.956667,-12.259182],[132.063982,-12.280781],[132.182326,-12.226992],[132.25321,-12.186057],[132.372016,-12.239143],[132.41093,-12.295173],[132.441538,-12.176367],[132.51062,-12.13497],[132.583745,-12.110229],[132.676447,-12.130026],[132.712878,-12.1235],[132.630547,-12.035082],[132.635271,-11.95475],[132.629865,-11.835725],[132.644719,-11.727048],[132.674184,-11.648979],[132.475288,-11.491479],[132.277951,-11.467617],[132.133503,-11.500707],[132.072771,-11.474824],[131.944736,-11.348591],[131.822568,-11.30247],[131.811758,-11.271423],[131.961611,-11.180742],[132.018542,-11.196496],[132.10584,-11.281091],[132.155564,-11.311018],[132.197861,-11.304953],[132.225085,-11.238793],[132.262658,-11.203923],[132.333982,-11.2235],[132.557422,-11.366828],[132.682732,-11.505651],[132.74709,-11.468979],[132.857107,-11.39113],[132.961059,-11.407324],[133.024956,-11.452763],[133.114297,-11.621755],[133.185158,-11.705668],[133.356172,-11.728168],[133.443227,-11.760358],[133.533227,-11.816147],[133.654516,-11.811423],[133.904258,-11.832121],[134.139387,-11.940117],[134.237033,-12.007617],[134.351116,-12.025854],[134.417495,-12.052617],[134.538081,-12.060725],[134.730232,-11.984457],[134.816408,-12.054638],[134.854663,-12.102582],[135.029719,-12.193703],[135.218047,-12.221608],[135.352366,-12.129125],[135.548779,-12.060725],[135.685581,-11.956091],[135.788413,-11.907048],[135.885159,-11.821772],[135.922512,-11.825815],[135.843542,-11.905466],[135.834094,-11.950707],[135.895727,-11.969604],[135.889443,-11.992763],[135.804387,-12.05488],[135.702456,-12.151625],[135.704477,-12.209897],[135.743852,-12.241625],[135.790896,-12.227453],[135.857495,-12.17863],[135.937805,-12.152065],[136.008469,-12.19144],[136.031409,-12.330944],[136.081814,-12.422526],[136.192732,-12.435117],[136.260693,-12.433776],[136.328413,-12.305522],[136.29196,-12.196406],[136.249883,-12.173005],[136.270141,-12.131608],[136.443396,-11.951367],[136.540141,-11.957673],[136.609663,-12.13363],[136.71946,-12.226552],[136.836465,-12.219125],[136.897439,-12.243647],[136.947383,-12.349841],[136.536977,-12.784328],[136.517861,-12.83269],[136.572991,-12.911682],[136.59437,-13.003923],[136.46093,-13.2251],[136.411887,-13.23613],[136.364646,-13.176276],[136.294202,-13.138022],[136.232327,-13.165026],[136.166189,-13.181],[135.927236,-13.304289],[135.929258,-13.621552],[135.989573,-13.8101],[135.95446,-13.93497],[135.883357,-14.153225],[135.806409,-14.234216],[135.744534,-14.286643],[135.538891,-14.584987],[135.473193,-14.656552],[135.405232,-14.758242],[135.427951,-14.855669],[135.453396,-14.923169],[135.530784,-15.000358],[135.832512,-15.1601],[135.969534,-15.270117],[136.205344,-15.403315],[136.259331,-15.495117],[136.291521,-15.570044],[136.461831,-15.655319],[136.583559,-15.706626],[136.618672,-15.693354],[136.644094,-15.675578],[136.67468,-15.675358],[136.704827,-15.685246],[136.700102,-15.751845],[136.686611,-15.788518],[136.698081,-15.83488],[136.784719,-15.894272],[136.922641,-15.89247],[137.002073,-15.878298],[137.089809,-15.941294],[137.169021,-15.982251],[137.299297,-16.066406],[137.526318,-16.166975],[137.703616,-16.232893],[137.912861,-16.476569],[138.002422,-16.555781],[138.001741,-16.556682],[138.00196,-25.999014],[129.00196,-25.999014]]],[[[137.064607,-15.662966],[137.071133,-15.738112],[137.093633,-15.778169],[137.050896,-15.824531],[136.996448,-15.775708],[136.984956,-15.725983],[136.942659,-15.711789],[136.963357,-15.665669],[136.985637,-15.652397],[137.009477,-15.594807],[137.064607,-15.662966]]],[[[136.586042,-15.533591],[136.612366,-15.544182],[136.590986,-15.628315],[136.531133,-15.63238],[136.514258,-15.627414],[136.502788,-15.583095],[136.522585,-15.543281],[136.586042,-15.533591]]],[[[136.845693,-15.54394],[136.87696,-15.502544],[136.890232,-15.58894],[136.862788,-15.619987],[136.846814,-15.627414],[136.845693,-15.54394]]],[[[136.933891,-14.179108],[136.950766,-14.184272],[136.931409,-14.245927],[136.894297,-14.292949],[136.76312,-14.273371],[136.649719,-14.280578],[136.460491,-14.234677],[136.363284,-14.228833],[136.335378,-14.211716],[136.39209,-14.175505],[136.427641,-14.12644],[136.411206,-14.011018],[136.424719,-13.864768],[136.533835,-13.793664],[136.582878,-13.721001],[136.655564,-13.676001],[136.701904,-13.681626],[136.696059,-13.726164],[136.714736,-13.803793],[136.757934,-13.845432],[136.804516,-13.842487],[136.845232,-13.750927],[136.870654,-13.763737],[136.890913,-13.786699],[136.905547,-13.826975],[136.842991,-13.896496],[136.814866,-13.907307],[136.788081,-13.945781],[136.745344,-14.072673],[136.749827,-14.11519],[136.78696,-14.157729],[136.885508,-14.197324],[136.933891,-14.179108]]],[[[136.215452,-13.664751],[136.257309,-13.706608],[136.275305,-13.791203],[136.237512,-13.824492],[136.213672,-13.835983],[136.122771,-13.816626],[136.122309,-13.780612],[136.13446,-13.753168],[136.159663,-13.736755],[136.215452,-13.664751]]],[[[136.449241,-11.487194],[136.479387,-11.465815],[136.47062,-11.509255],[136.379477,-11.583281],[136.338762,-11.602397],[136.180361,-11.676643],[136.267439,-11.576513],[136.449241,-11.487194]]],[[[130.579882,-11.737177],[130.602844,-11.773168],[130.606206,-11.816608],[130.502495,-11.835725],[130.317529,-11.771828],[130.131245,-11.824475],[130.076555,-11.825375],[130.043266,-11.787341],[130.072072,-11.680707],[130.139111,-11.697121],[130.197602,-11.658207],[130.187033,-11.541203],[130.152844,-11.477526],[130.251172,-11.360522],[130.294809,-11.336901],[130.33937,-11.337121],[130.376701,-11.420156],[130.38571,-11.509914],[130.432732,-11.592268],[130.459297,-11.679345],[130.54187,-11.703207],[130.579882,-11.737177]]],[[[131.473357,-11.382582],[131.52218,-11.41519],[131.538615,-11.437031],[131.467951,-11.509475],[131.458503,-11.588005],[131.382917,-11.5826],[131.292016,-11.710854],[130.950913,-11.926406],[130.644922,-11.742341],[130.511943,-11.617932],[130.422844,-11.445798],[130.404826,-11.304953],[130.368615,-11.214953],[130.384589,-11.192233],[130.403047,-11.180522],[130.426667,-11.183005],[130.519128,-11.279531],[130.559865,-11.306074],[130.618818,-11.376057],[130.752236,-11.384362],[130.912878,-11.309216],[130.987365,-11.339824],[131.023137,-11.334418],[131.140581,-11.263095],[131.21709,-11.242617],[131.268154,-11.18975],[131.320581,-11.246901],[131.436904,-11.313281],[131.473357,-11.382582]]],[[[136.731831,-11.024604],[136.780215,-11.012453],[136.741521,-11.194694],[136.598633,-11.378979],[136.526628,-11.438832],[136.521684,-11.393832],[136.559719,-11.357819],[136.649038,-11.211569],[136.687952,-11.1776],[136.710452,-11.158483],[136.727327,-11.104694],[136.731831,-11.024604]]],[[[132.593193,-10.9976],[132.596797,-11.106496],[132.629184,-11.169052],[132.593413,-11.302932],[132.573615,-11.318444],[132.493745,-11.163647],[132.516245,-11.115944],[132.483835,-11.037194],[132.537844,-11.028427],[132.578779,-10.968793],[132.593193,-10.9976]]]]}},{"type":"Feature","properties":{"name":"Australian Capital Territory","postal":"ACT","iso_3166_2":"AU-ACT","type_en":"Territory","adm0_a3":"AUS","iso_a2":"AU","source":"Natural Earth 50m admin-1 states/provinces"},"geometry":{"type":"Polygon","coordinates":[[[149.403836,-35.329329],[149.368064,-35.356092],[149.278965,-35.347105],[149.185142,-35.382876],[149.140581,-35.440928],[149.14937,-35.507967],[149.12709,-35.583794],[149.086814,-35.610579],[149.10481,-35.829273],[149.051263,-35.914109],[148.948431,-35.887325],[148.899388,-35.820506],[148.890379,-35.744458],[148.850345,-35.748941],[148.792293,-35.708907],[148.774517,-35.637342],[148.770013,-35.494475],[148.828064,-35.311553],[149.10481,-35.146407],[149.189646,-35.177454],[149.194129,-35.21773],[149.256465,-35.271277],[149.403836,-35.329329]]]}}]}